[{"OBJECT_NAME":"INTELSAT 30 (IS-30)","OBJECT_ID":"2014-062A","EPOCH":"2026-04-04T15:45:19.146240","MEAN_MOTION":1.00274302,"ECCENTRICITY":0.00014007,"INCLINATION":0.0127,"RA_OF_ASC_NODE":222.157,"ARG_OF_PERICENTER":36.6155,"MEAN_ANOMALY":75.4924,"EPHEMERIS_TYPE":0,"CLASSIFICATION_TYPE":"U","NORAD_CAT_ID":40271,"ELEMENT_SET_NO":999,"REV_AT_EPOCH":605,"BSTAR":0,"MEAN_MOTION_DOT":-1.51e-6,"MEAN_MOTION_DDOT":0},{"OBJECT_NAME":"DIRECTV 14","OBJECT_ID":"2014-078B","EPOCH":"2026-04-05T05:25:43.055328","MEAN_MOTION":1.00271441,"ECCENTRICITY":7.715e-5,"INCLINATION":0.0109,"RA_OF_ASC_NODE":177.0924,"ARG_OF_PERICENTER":304.2384,"MEAN_ANOMALY":54.385,"EPHEMERIS_TYPE":0,"CLASSIFICATION_TYPE":"U","NORAD_CAT_ID":40333,"ELEMENT_SET_NO":999,"REV_AT_EPOCH":4131,"BSTAR":0,"MEAN_MOTION_DOT":-1.24e-6,"MEAN_MOTION_DDOT":0},{"OBJECT_NAME":"DIRECTV 15","OBJECT_ID":"2015-026A","EPOCH":"2026-04-05T03:20:38.727168","MEAN_MOTION":1.00272271,"ECCENTRICITY":3.776e-5,"INCLINATION":0.0332,"RA_OF_ASC_NODE":92.6431,"ARG_OF_PERICENTER":63.9851,"MEAN_ANOMALY":344.0959,"EPHEMERIS_TYPE":0,"CLASSIFICATION_TYPE":"U","NORAD_CAT_ID":40663,"ELEMENT_SET_NO":999,"REV_AT_EPOCH":3973,"BSTAR":0,"MEAN_MOTION_DOT":-1.01e-6,"MEAN_MOTION_DDOT":0},{"OBJECT_NAME":"SKY MEXICO-1","OBJECT_ID":"2015-026B","EPOCH":"2026-04-05T04:03:38.630304","MEAN_MOTION":1.00271759,"ECCENTRICITY":0.00026063,"INCLINATION":0.0191,"RA_OF_ASC_NODE":117.2639,"ARG_OF_PERICENTER":283.6419,"MEAN_ANOMALY":134.6689,"EPHEMERIS_TYPE":0,"CLASSIFICATION_TYPE":"U","NORAD_CAT_ID":40664,"ELEMENT_SET_NO":999,"REV_AT_EPOCH":3972,"BSTAR":0,"MEAN_MOTION_DOT":-2.33e-6,"MEAN_MOTION_DDOT":0},{"OBJECT_NAME":"INTELSAT 34 (IS-34)","OBJECT_ID":"2015-039A","EPOCH":"2026-04-05T02:12:46.560384","MEAN_MOTION":1.00273794,"ECCENTRICITY":5.8e-6,"INCLINATION":0.022,"RA_OF_ASC_NODE":270.2875,"ARG_OF_PERICENTER":41.2438,"MEAN_ANOMALY":219.5693,"EPHEMERIS_TYPE":0,"CLASSIFICATION_TYPE":"U","NORAD_CAT_ID":40874,"ELEMENT_SET_NO":999,"REV_AT_EPOCH":3889,"BSTAR":0,"MEAN_MOTION_DOT":-2.84e-6,"MEAN_MOTION_DDOT":0},{"OBJECT_NAME":"INTELSAT 31 (IS-31)","OBJECT_ID":"2016-035A","EPOCH":"2026-04-05T03:44:15.287136","MEAN_MOTION":1.00278563,"ECCENTRICITY":0.00017916,"INCLINATION":0.0134,"RA_OF_ASC_NODE":224.7249,"ARG_OF_PERICENTER":39.3287,"MEAN_ANOMALY":250.4391,"EPHEMERIS_TYPE":0,"CLASSIFICATION_TYPE":"U","NORAD_CAT_ID":41581,"ELEMENT_SET_NO":999,"REV_AT_EPOCH":3595,"BSTAR":0,"MEAN_MOTION_DOT":-1.51e-6,"MEAN_MOTION_DDOT":0},{"OBJECT_NAME":"INTELSAT 36 (IS-36)","OBJECT_ID":"2016-053A","EPOCH":"2026-04-05T02:48:13.162464","MEAN_MOTION":1.00267841,"ECCENTRICITY":0.00011356,"INCLINATION":0.0095,"RA_OF_ASC_NODE":237.1916,"ARG_OF_PERICENTER":91.4784,"MEAN_ANOMALY":335.3094,"EPHEMERIS_TYPE":0,"CLASSIFICATION_TYPE":"U","NORAD_CAT_ID":41747,"ELEMENT_SET_NO":999,"REV_AT_EPOCH":3522,"BSTAR":0,"MEAN_MOTION_DOT":0,"MEAN_MOTION_DDOT":0},{"OBJECT_NAME":"INTELSAT 32E (IS-32E)","OBJECT_ID":"2017-007B","EPOCH":"2026-04-05T03:52:57.569088","MEAN_MOTION":1.00269243,"ECCENTRICITY":3.266e-5,"INCLINATION":0.0193,"RA_OF_ASC_NODE":215.6361,"ARG_OF_PERICENTER":63.3562,"MEAN_ANOMALY":289.5341,"EPHEMERIS_TYPE":0,"CLASSIFICATION_TYPE":"U","NORAD_CAT_ID":41945,"ELEMENT_SET_NO":999,"REV_AT_EPOCH":3349,"BSTAR":0,"MEAN_MOTION_DOT":0,"MEAN_MOTION_DDOT":0},{"OBJECT_NAME":"INTELSAT 35E (IS-35E)","OBJECT_ID":"2017-041A","EPOCH":"2026-04-05T04:21:38.867040","MEAN_MOTION":1.00272866,"ECCENTRICITY":0.00021315,"INCLINATION":0.0174,"RA_OF_ASC_NODE":214.7221,"ARG_OF_PERICENTER":161.8428,"MEAN_ANOMALY":207.8241,"EPHEMERIS_TYPE":0,"CLASSIFICATION_TYPE":"U","NORAD_CAT_ID":42818,"ELEMENT_SET_NO":999,"REV_AT_EPOCH":3208,"BSTAR":0,"MEAN_MOTION_DOT":-2.37e-6,"MEAN_MOTION_DDOT":0},{"OBJECT_NAME":"INTELSAT 37E (IS-37E)","OBJECT_ID":"2017-059A","EPOCH":"2026-04-05T05:48:48.085344","MEAN_MOTION":1.00272851,"ECCENTRICITY":0.00021704,"INCLINATION":0.0169,"RA_OF_ASC_NODE":182.3305,"ARG_OF_PERICENTER":211.1706,"MEAN_ANOMALY":229.2337,"EPHEMERIS_TYPE":0,"CLASSIFICATION_TYPE":"U","NORAD_CAT_ID":42950,"ELEMENT_SET_NO":999,"REV_AT_EPOCH":3133,"BSTAR":0,"MEAN_MOTION_DOT":-1.39e-6,"MEAN_MOTION_DDOT":0},{"OBJECT_NAME":"AZERSPACE 2 (IS-38)","OBJECT_ID":"2018-074A","EPOCH":"2026-04-05T04:24:11.457216","MEAN_MOTION":1.00269983,"ECCENTRICITY":0.0001453,"INCLINATION":0.0163,"RA_OF_ASC_NODE":230.6569,"ARG_OF_PERICENTER":143.7344,"MEAN_ANOMALY":290.2572,"EPHEMERIS_TYPE":0,"CLASSIFICATION_TYPE":"U","NORAD_CAT_ID":43632,"ELEMENT_SET_NO":999,"REV_AT_EPOCH":2771,"BSTAR":0,"MEAN_MOTION_DOT":1.38e-6,"MEAN_MOTION_DDOT":0},{"OBJECT_NAME":"HORIZONS-3E","OBJECT_ID":"2018-074B","EPOCH":"2026-04-04T20:26:09.676032","MEAN_MOTION":1.00272146,"ECCENTRICITY":7.77e-5,"INCLINATION":0.0021,"RA_OF_ASC_NODE":153.712,"ARG_OF_PERICENTER":169.9498,"MEAN_ANOMALY":345.0402,"EPHEMERIS_TYPE":0,"CLASSIFICATION_TYPE":"U","NORAD_CAT_ID":43633,"ELEMENT_SET_NO":999,"REV_AT_EPOCH":2760,"BSTAR":0,"MEAN_MOTION_DOT":-3.0e-7,"MEAN_MOTION_DDOT":0},{"OBJECT_NAME":"AT&T T-16","OBJECT_ID":"2019-034A","EPOCH":"2026-04-05T03:46:38.460576","MEAN_MOTION":1.00271556,"ECCENTRICITY":8.527e-5,"INCLINATION":0.0252,"RA_OF_ASC_NODE":104.501,"ARG_OF_PERICENTER":73.615,"MEAN_ANOMALY":331.1494,"EPHEMERIS_TYPE":0,"CLASSIFICATION_TYPE":"U","NORAD_CAT_ID":44333,"ELEMENT_SET_NO":999,"REV_AT_EPOCH":2490,"BSTAR":0,"MEAN_MOTION_DOT":-1.14e-6,"MEAN_MOTION_DDOT":0},{"OBJECT_NAME":"INTELSAT 39 (IS-39)","OBJECT_ID":"2019-049B","EPOCH":"2026-04-05T01:03:38.192256","MEAN_MOTION":1.00270052,"ECCENTRICITY":8.053e-5,"INCLINATION":0.0173,"RA_OF_ASC_NODE":209.6657,"ARG_OF_PERICENTER":310.7937,"MEAN_ANOMALY":110.7437,"EPHEMERIS_TYPE":0,"CLASSIFICATION_TYPE":"U","NORAD_CAT_ID":44476,"ELEMENT_SET_NO":999,"REV_AT_EPOCH":2439,"BSTAR":0,"MEAN_MOTION_DOT":0,"MEAN_MOTION_DDOT":0},{"OBJECT_NAME":"GALAXY 30 (G-30)","OBJECT_ID":"2020-056C","EPOCH":"2026-04-04T22:27:32.891040","MEAN_MOTION":1.00272177,"ECCENTRICITY":0.00024578,"INCLINATION":0.0165,"RA_OF_ASC_NODE":201.4199,"ARG_OF_PERICENTER":199.6088,"MEAN_ANOMALY":4.1053,"EPHEMERIS_TYPE":0,"CLASSIFICATION_TYPE":"U","NORAD_CAT_ID":46114,"ELEMENT_SET_NO":999,"REV_AT_EPOCH":2055,"BSTAR":0,"MEAN_MOTION_DOT":0,"MEAN_MOTION_DDOT":0},{"OBJECT_NAME":"GALAXY 33 (G-33)","OBJECT_ID":"2022-128A","EPOCH":"2026-04-05T05:16:06.477024","MEAN_MOTION":1.00271395,"ECCENTRICITY":0.00019881,"INCLINATION":0.0128,"RA_OF_ASC_NODE":218.5888,"ARG_OF_PERICENTER":164.8127,"MEAN_ANOMALY":116.1496,"EPHEMERIS_TYPE":0,"CLASSIFICATION_TYPE":"U","NORAD_CAT_ID":54026,"ELEMENT_SET_NO":999,"REV_AT_EPOCH":1301,"BSTAR":0,"MEAN_MOTION_DOT":0,"MEAN_MOTION_DDOT":0},{"OBJECT_NAME":"GALAXY 34 (G-34)","OBJECT_ID":"2022-128B","EPOCH":"2026-04-05T05:49:38.512704","MEAN_MOTION":1.0028904,"ECCENTRICITY":0.00018281,"INCLINATION":0.0199,"RA_OF_ASC_NODE":244.0459,"ARG_OF_PERICENTER":99.508,"MEAN_ANOMALY":168.3927,"EPHEMERIS_TYPE":0,"CLASSIFICATION_TYPE":"U","NORAD_CAT_ID":54027,"ELEMENT_SET_NO":999,"REV_AT_EPOCH":1318,"BSTAR":0,"MEAN_MOTION_DOT":5.8e-7,"MEAN_MOTION_DDOT":0}]
