INTELSAT 30 (IS-30)     
1 40271U 14062A   26094.65647160 -.00000151  00000+0  00000+0 0  9999
2 40271   0.0127 222.1570 0001400  36.6155  75.4924  1.00274302  6057
DIRECTV 14              
1 40333U 14078B   26095.22619277 -.00000124  00000+0  00000+0 0  9997
2 40333   0.0109 177.0924 0000771 304.2384  54.3850  1.00271441 41318
DIRECTV 15              
1 40663U 15026A   26095.13933712 -.00000101  00000+0  00000+0 0  9995
2 40663   0.0332  92.6431 0000377  63.9851 344.0959  1.00272271 39731
SKY MEXICO-1            
1 40664U 15026B   26095.16919711 -.00000233  00000+0  00000+0 0  9998
2 40664   0.0191 117.2639 0002606 283.6419 134.6689  1.00271759 39729
INTELSAT 34 (IS-34)     
1 40874U 15039A   26095.09220556 -.00000284  00000+0  00000+0 0  9995
2 40874   0.0220 270.2875 0000058  41.2438 219.5693  1.00273794 38891
INTELSAT 31 (IS-31)     
1 41581U 16035A   26095.15573249 -.00000151  00000+0  00000+0 0  9998
2 41581   0.0134 224.7249 0001791  39.3287 250.4391  1.00278563 35957
INTELSAT 36 (IS-36)     
1 41747U 16053A   26095.11681901  .00000000  00000+0  00000+0 0  9995
2 41747   0.0095 237.1916 0001135  91.4784 335.3094  1.00267841 35229
INTELSAT 32E (IS-32E)   
1 41945U 17007B   26095.16177742  .00000000  00000+0  00000+0 0  9993
2 41945   0.0193 215.6361 0000326  63.3562 289.5341  1.00269243 33496
INTELSAT 35E (IS-35E)   
1 42818U 17041A   26095.18169985 -.00000237  00000+0  00000+0 0  9996
2 42818   0.0174 214.7221 0002131 161.8428 207.8241  1.00272866 32082
INTELSAT 37E (IS-37E)   
1 42950U 17059A   26095.24222321 -.00000139  00000+0  00000+0 0  9994
2 42950   0.0169 182.3305 0002170 211.1706 229.2337  1.00272851 31332
AZERSPACE 2 (IS-38)     
1 43632U 18074A   26095.18346594  .00000138  00000+0  00000+0 0  9990
2 43632   0.0163 230.6569 0001453 143.7344 290.2572  1.00269983 27712
HORIZONS-3E             
1 43633U 18074B   26094.85150088 -.00000030  00000+0  00000+0 0  9997
2 43633   0.0021 153.7120 0000777 169.9498 345.0402  1.00272146 27606
AT&T T-16               
1 44333U 19034A   26095.15738959 -.00000114  00000+0  00000+0 0  9998
2 44333   0.0252 104.5010 0000852  73.6150 331.1494  1.00271556 24903
INTELSAT 39 (IS-39)     
1 44476U 19049B   26095.04419204  .00000000  00000+0  00000+0 0  9992
2 44476   0.0173 209.6657 0000805 310.7937 110.7437  1.00270052 24394
GALAXY 30 (G-30)        
1 46114U 20056C   26094.93579735  .00000000  00000+0  00000+0 0  9996
2 46114   0.0165 201.4199 0002457 199.6088   4.1053  1.00272177 20557
GALAXY 33 (G-33)        
1 54026U 22128A   26095.21951941  .00000000  00000+0  00000+0 0  9994
2 54026   0.0128 218.5888 0001988 164.8127 116.1496  1.00271395 13016
GALAXY 34 (G-34)        
1 54027U 22128B   26095.24280686  .00000058  00000+0  00000+0 0  9992
2 54027   0.0199 244.0459 0001828  99.5080 168.3927  1.00289040 13180
